{
  "type": "FeatureCollection",
  "features": [
    {
      "type": "Feature",
      "properties": {
        "norad_id": 15362,
        "name": "NOVA 3",
        "group": "nnss",
        "lat": 63.13510529029149,
        "lon": 80.38708454060496,
        "alt_km": 1176.2046879072695,
        "timestamp": "2025-12-20T16:47:36.555160+00:00",
        "meta_object_name": "NOVA 3",
        "meta_object_id": "1984-110A",
        "meta_epoch": "2025-12-20T05:50:42.318240",
        "meta_mean_motion": 13.23045429,
        "meta_eccentricity": 0.0030003,
        "meta_inclination": 90.1222,
        "meta_ra_of_asc_node": 80.6231,
        "meta_arg_of_pericenter": 310.4079,
        "meta_mean_anomaly": 100.9335,
        "meta_ephemeris_type": 0,
        "meta_classification_type": "U",
        "meta_norad_cat_id": 15362,
        "meta_element_set_no": 999,
        "meta_rev_at_epoch": 98798,
        "meta_bstar": 0.00010221,
        "meta_mean_motion_dot": 5.1e-07,
        "meta_mean_motion_ddot": 0,
        "tle_line1": "1 15362U 84110A   25354.24354535  .00000051  00000+0  10221-3 0  9995",
        "tle_line2": "2 15362  90.1222  80.6231 0030003 310.4079 100.9335 13.23045429987980"
      },
      "geometry": {
        "type": "Point",
        "coordinates": [
          80.38708454060496,
          63.13510529029149
        ]
      }
    },
    {
      "type": "Feature",
      "properties": {
        "norad_id": 15935,
        "name": "OSCAR 30",
        "group": "nnss",
        "lat": 21.349413162873997,
        "lon": -79.95792317489409,
        "alt_km": 1136.8204636087567,
        "timestamp": "2025-12-20T16:47:36.555171+00:00",
        "meta_object_name": "OSCAR 30",
        "meta_object_id": "1985-066A",
        "meta_epoch": "2025-12-20T07:17:41.512416",
        "meta_mean_motion": 13.36079379,
        "meta_eccentricity": 0.0169186,
        "meta_inclination": 90.1655,
        "meta_ra_of_asc_node": 99.9709,
        "meta_arg_of_pericenter": 62.7881,
        "meta_mean_anomaly": 351.3123,
        "meta_ephemeris_type": 0,
        "meta_classification_type": "U",
        "meta_norad_cat_id": 15935,
        "meta_element_set_no": 999,
        "meta_rev_at_epoch": 96554,
        "meta_bstar": 0.00010295,
        "meta_mean_motion_dot": 6.7e-07,
        "meta_mean_motion_ddot": 0,
        "tle_line1": "1 15935U 85066A   25354.30395269  .00000067  00000+0  10295-3 0  9996",
        "tle_line2": "2 15935  90.1655  99.9709 0169186  62.7881 351.3123 13.36079379965542"
      },
      "geometry": {
        "type": "Point",
        "coordinates": [
          -79.95792317489409,
          21.349413162873997
        ]
      }
    },
    {
      "type": "Feature",
      "properties": {
        "norad_id": 15936,
        "name": "OSCAR 24",
        "group": "nnss",
        "lat": -48.622925318912976,
        "lon": -87.75729624159814,
        "alt_km": 1251.530011545302,
        "timestamp": "2025-12-20T16:47:36.555181+00:00",
        "meta_object_name": "OSCAR 24",
        "meta_object_id": "1985-066B",
        "meta_epoch": "2025-12-20T06:56:23.653824",
        "meta_mean_motion": 13.35936773,
        "meta_eccentricity": 0.0170312,
        "meta_inclination": 90.1791,
        "meta_ra_of_asc_node": 92.4389,
        "meta_arg_of_pericenter": 69.2667,
        "meta_mean_anomaly": 345.2084,
        "meta_ephemeris_type": 0,
        "meta_classification_type": "U",
        "meta_norad_cat_id": 15936,
        "meta_element_set_no": 999,
        "meta_rev_at_epoch": 96744,
        "meta_bstar": 0.00010129,
        "meta_mean_motion_dot": 6.6e-07,
        "meta_mean_motion_ddot": 0,
        "tle_line1": "1 15936U 85066B   25354.28916266  .00000066  00000+0  10129-3 0  9995",
        "tle_line2": "2 15936  90.1791  92.4389 0170312  69.2667 345.2084 13.35936773967441"
      },
      "geometry": {
        "type": "Point",
        "coordinates": [
          -87.75729624159814,
          -48.622925318912976
        ]
      }
    },
    {
      "type": "Feature",
      "properties": {
        "norad_id": 17070,
        "name": "POLAR BEAR",
        "group": "nnss",
        "lat": 70.88048358807222,
        "lon": 2.3493365062481297,
        "alt_km": 944.399462027679,
        "timestamp": "2025-12-20T16:47:36.555192+00:00",
        "meta_object_name": "POLAR BEAR",
        "meta_object_id": "1986-088A",
        "meta_epoch": "2025-12-20T11:19:33.907008",
        "meta_mean_motion": 13.75252361,
        "meta_eccentricity": 0.004127,
        "meta_inclination": 89.617,
        "meta_ra_of_asc_node": 183.4641,
        "meta_arg_of_pericenter": 96.9804,
        "meta_mean_anomaly": 324.8252,
        "meta_ephemeris_type": 0,
        "meta_classification_type": "U",
        "meta_norad_cat_id": 17070,
        "meta_element_set_no": 999,
        "meta_rev_at_epoch": 96085,
        "meta_bstar": 9.2031e-05,
        "meta_mean_motion_dot": 1e-06,
        "meta_mean_motion_ddot": 0,
        "tle_line1": "1 17070U 86088A   25354.47192022  .00000100  00000+0  92031-4 0  9990",
        "tle_line2": "2 17070  89.6170 183.4641 0041270  96.9804 324.8252 13.75252361960854"
      },
      "geometry": {
        "type": "Point",
        "coordinates": [
          2.3493365062481297,
          70.88048358807222
        ]
      }
    },
    {
      "type": "Feature",
      "properties": {
        "norad_id": 18361,
        "name": "OSCAR 27",
        "group": "nnss",
        "lat": -38.54628476180558,
        "lon": -100.72812036662484,
        "alt_km": 1023.7166949751654,
        "timestamp": "2025-12-20T16:47:36.555202+00:00",
        "meta_object_name": "OSCAR 27",
        "meta_object_id": "1987-080A",
        "meta_epoch": "2025-12-20T12:08:20.549760",
        "meta_mean_motion": 13.44908172,
        "meta_eccentricity": 0.0103544,
        "meta_inclination": 90.374,
        "meta_ra_of_asc_node": 79.5628,
        "meta_arg_of_pericenter": 201.3956,
        "meta_mean_anomaly": 158.2848,
        "meta_ephemeris_type": 0,
        "meta_classification_type": "U",
        "meta_norad_cat_id": 18361,
        "meta_element_set_no": 999,
        "meta_rev_at_epoch": 87661,
        "meta_bstar": 0.00014659,
        "meta_mean_motion_dot": 9.7e-07,
        "meta_mean_motion_ddot": 0,
        "tle_line1": "1 18361U 87080A   25354.50579340  .00000097  00000+0  14659-3 0  9997",
        "tle_line2": "2 18361  90.3740  79.5628 0103544 201.3956 158.2848 13.44908172876617"
      },
      "geometry": {
        "type": "Point",
        "coordinates": [
          -100.72812036662484,
          -38.54628476180558
        ]
      }
    },
    {
      "type": "Feature",
      "properties": {
        "norad_id": 18362,
        "name": "OSCAR 29",
        "group": "nnss",
        "lat": -37.122082799210844,
        "lon": -100.25450720276933,
        "alt_km": 1021.7101741680608,
        "timestamp": "2025-12-20T16:47:36.555212+00:00",
        "meta_object_name": "OSCAR 29",
        "meta_object_id": "1987-080B",
        "meta_epoch": "2025-12-20T12:11:35.667744",
        "meta_mean_motion": 13.44449676,
        "meta_eccentricity": 0.0104399,
        "meta_inclination": 90.3751,
        "meta_ra_of_asc_node": 80.0224,
        "meta_arg_of_pericenter": 224.6444,
        "meta_mean_anomaly": 145.356,
        "meta_ephemeris_type": 0,
        "meta_classification_type": "U",
        "meta_norad_cat_id": 18362,
        "meta_element_set_no": 999,
        "meta_rev_at_epoch": 87614,
        "meta_bstar": 0.00012855,
        "meta_mean_motion_dot": 8.5e-07,
        "meta_mean_motion_ddot": 0,
        "tle_line1": "1 18362U 87080B   25354.50805171  .00000085  00000+0  12855-3 0  9995",
        "tle_line2": "2 18362  90.3751  80.0224 0104399 224.6444 145.3560 13.44449676876143"
      },
      "geometry": {
        "type": "Point",
        "coordinates": [
          -100.25450720276933,
          -37.122082799210844
        ]
      }
    },
    {
      "type": "Feature",
      "properties": {
        "norad_id": 19070,
        "name": "OSCAR 23",
        "group": "nnss",
        "lat": -57.935039657484964,
        "lon": -163.8724773495352,
        "alt_km": 1134.9034851556253,
        "timestamp": "2025-12-20T16:47:36.555222+00:00",
        "meta_object_name": "OSCAR 23",
        "meta_object_id": "1988-033A",
        "meta_epoch": "2025-12-20T01:17:13.826400",
        "meta_mean_motion": 13.27788394,
        "meta_eccentricity": 0.01901347,
        "meta_inclination": 90.3204,
        "meta_ra_of_asc_node": 16.6192,
        "meta_arg_of_pericenter": 159.6147,
        "meta_mean_anomaly": 229.5476,
        "meta_ephemeris_type": 0,
        "meta_classification_type": "U",
        "meta_norad_cat_id": 19070,
        "meta_element_set_no": 999,
        "meta_rev_at_epoch": 82350,
        "meta_bstar": 0.00018124399,
        "meta_mean_motion_dot": 9.9e-07,
        "meta_mean_motion_ddot": 0,
        "tle_line1": "1 19070U 88033A   25354.05363225  .00000099  00000+0  18124-3 0  9990",
        "tle_line2": "2 19070  90.3204  16.6192 0190134 159.6147 229.5476 13.27788394823508"
      },
      "geometry": {
        "type": "Point",
        "coordinates": [
          -163.8724773495352,
          -57.935039657484964
        ]
      }
    }
  ]
}